STARLINK-2303
1 17981C 21024E   21326.19688215  .00004383  00000-0  29359-3 0  3265
2 17981  53.0524 177.8686 0001897  80.0300 310.5694 15.06401599    18
